[
    {
        "Altitude(m)": 612502.2135818215,
        "Argument of Periapsis(deg)": 0.0,
        "Eccentricity": 0.0,
        "Inclination(deg)": 60.0,
        "Latitude(deg)": -28.136034536015263,
        "Longitude(deg)": 17.14830261006895,
        "Mean Anomaly(deg)": -32.72730000000001,
        "RAAN(deg)": 135.0,
        "Satellite Name": "Test1 614",
        "Satellite Number": 614,
        "Semi-Major Axis(m)": 6980739.136638005,
        "Time(s)": 0
    },
    {
        "Altitude(m)": 612308.6610502747,
        "Argument of Periapsis(deg)": 0.00010418945913296404,
        "Eccentricity": 0.0,
        "Inclination(deg)": 60.0,
        "Latitude(deg)": -27.623089225390316,
        "Longitude(deg)": 17.501775814171218,
        "Mean Anomaly(deg)": -32.10719385453816,
        "RAAN(deg)": 134.99957995086024,
        "Satellite Name": "Test1 614",
        "Satellite Number": 614,
        "Semi-Major Axis(m)": 6980739.136638005,
        "Time(s)": 10
    },
    {
        "Altitude(m)": 612116.0774240306,
        "Argument of Periapsis(deg)": 0.0002083789182659281,
        "Eccentricity": 0.0,
        "Inclination(deg)": 60.0,
        "Latitude(deg)": -27.10897505725373,
        "Longitude(deg)": 17.851597856775903,
        "Mean Anomaly(deg)": -31.48708770907633,
        "RAAN(deg)": 134.99915990172053,
        "Satellite Name": "Test1 614",
        "Satellite Number": 614,
        "Semi-Major Axis(m)": 6980739.136638005,
        "Time(s)": 20
    },
    {
        "Altitude(m)": 611924.5322898682,
        "Argument of Periapsis(deg)": 0.00031256837739889213,
        "Eccentricity": 0.0,
        "Inclination(deg)": 60.0,
        "Latitude(deg)": -26.59372634693409,
        "Longitude(deg)": 18.197873154543853,
        "Mean Anomaly(deg)": -30.86698156361448,
        "RAAN(deg)": 134.99873985258077,
        "Satellite Name": "Test1 614",
        "Satellite Number": 614,
        "Semi-Major Axis(m)": 6980739.136638005,
        "Time(s)": 30
    },
    {
        "Altitude(m)": 611734.0946279552,
        "Argument of Periapsis(deg)": 0.0004167578365318562,
        "Eccentricity": 0.0,
        "Inclination(deg)": 60.0,
        "Latitude(deg)": -26.077376560415026,
        "Longitude(deg)": 18.540704406526324,
        "Mean Anomaly(deg)": -30.24687541815275,
        "RAAN(deg)": 134.99831980344103,
        "Satellite Name": "Test1 614",
        "Satellite Number": 614,
        "Semi-Major Axis(m)": 6980739.136638005,
        "Time(s)": 40
    },
    {
        "Altitude(m)": 611544.8327813382,
        "Argument of Periapsis(deg)": 0.0005209472956648203,
        "Eccentricity": 0.0,
        "Inclination(deg)": 60.0,
        "Latitude(deg)": -25.55995834673892,
        "Longitude(deg)": 18.880191649425292,
        "Mean Anomaly(deg)": -29.6267692726909,
        "RAAN(deg)": 134.99789975430127,
        "Satellite Name": "Test1 614",
        "Satellite Number": 614,
        "Semi-Major Axis(m)": 6980739.136638005,
        "Time(s)": 50
    },
    {
        "Altitude(m)": 611356.8144257162,
        "Argument of Periapsis(deg)": 0.0006251367547977843,
        "Eccentricity": 0.0,
        "Inclination(deg)": 60.0,
        "Latitude(deg)": -25.041503569304922,
        "Longitude(deg)": 19.21643282497327,
        "Mean Anomaly(deg)": -29.006663127229068,
        "RAAN(deg)": 134.99747970516157,
        "Satellite Name": "Test1 614",
        "Satellite Number": 614,
        "Semi-Major Axis(m)": 6980739.136638005,
        "Time(s)": 60
    },
    {
        "Altitude(m)": 611170.1065395012,
        "Argument of Periapsis(deg)": 0.0007293262139307483,
        "Eccentricity": 0.0,
        "Inclination(deg)": 60.0,
        "Latitude(deg)": -24.52204333610005,
        "Longitude(deg)": 19.54952434650023,
        "Mean Anomaly(deg)": -28.38655698176722,
        "RAAN(deg)": 134.9970596560218,
        "Satellite Name": "Test1 614",
        "Satellite Number": 614,
        "Semi-Major Axis(m)": 6980739.136638005,
        "Time(s)": 70
    },
    {
        "Altitude(m)": 610984.7753742253,
        "Argument of Periapsis(deg)": 0.0008335156730637124,
        "Eccentricity": 0.0,
        "Inclination(deg)": 60.0,
        "Latitude(deg)": -24.001608028904837,
        "Longitude(deg)": 19.879560151763737,
        "Mean Anomaly(deg)": -27.76645083630539,
        "RAAN(deg)": 134.99663960688207,
        "Satellite Name": "Test1 614",
        "Satellite Number": 614,
        "Semi-Major Axis(m)": 6980739.136638005,
        "Time(s)": 80
    },
    {
        "Altitude(m)": 610800.8864252294,
        "Argument of Periapsis(deg)": 0.0009377051321966765,
        "Eccentricity": 0.0,
        "Inclination(deg)": 60.0,
        "Latitude(deg)": -23.480227331504402,
        "Longitude(deg)": 20.20663226774628,
        "Mean Anomaly(deg)": -27.146344690843538,
        "RAAN(deg)": 134.9962195577423,
        "Satellite Name": "Test1 614",
        "Satellite Number": 614,
        "Semi-Major Axis(m)": 6980739.136638005,
        "Time(s)": 90
    },
    {
        "Altitude(m)": 610618.5044027503,
        "Argument of Periapsis(deg)": 0.0010418945913296407,
        "Eccentricity": 0.0,
        "Inclination(deg)": 60.0,
        "Latitude(deg)": -22.957930256943783,
        "Longitude(deg)": 20.530831374515028,
        "Mean Anomaly(deg)": -26.52623854538171,
        "RAAN(deg)": 134.9957995086026,
        "Satellite Name": "Test1 614",
        "Satellite Number": 614,
        "Semi-Major Axis(m)": 6980739.136638005,
        "Time(s)": 100
    },
    {
        "Altitude(m)": 610437.6932033299,
        "Argument of Periapsis(deg)": 0.0011460840504626045,
        "Eccentricity": 0.0,
        "Inclination(deg)": 60.0,
        "Latitude(deg)": -22.434745173865316,
        "Longitude(deg)": 20.85224585524318,
        "Mean Anomaly(deg)": -25.906132399919855,
        "RAAN(deg)": 134.9953794594628,
        "Satellite Name": "Test1 614",
        "Satellite Number": 614,
        "Semi-Major Axis(m)": 6980739.136638005,
        "Time(s)": 110
    },
    {
        "Altitude(m)": 610258.5158816235,
        "Argument of Periapsis(deg)": 0.0012502735095955685,
        "Eccentricity": 0.0,
        "Inclination(deg)": 60.0,
        "Latitude(deg)": -21.91069983195748,
        "Longitude(deg)": 21.170962358121262,
        "Mean Anomaly(deg)": -25.28602625445803,
        "RAAN(deg)": 134.99495941032308,
        "Satellite Name": "Test1 614",
        "Satellite Number": 614,
        "Semi-Major Axis(m)": 6980739.136638005,
        "Time(s)": 120
    },
    {
        "Altitude(m)": 610081.03462257,
        "Argument of Periapsis(deg)": 0.0013544629687285324,
        "Eccentricity": 0.0,
        "Inclination(deg)": 60.0,
        "Latitude(deg)": -21.38582138655102,
        "Longitude(deg)": 21.487066357270944,
        "Mean Anomaly(deg)": -24.665920108996175,
        "RAAN(deg)": 134.99453936118334,
        "Satellite Name": "Test1 614",
        "Satellite Number": 614,
        "Semi-Major Axis(m)": 6980739.136638005,
        "Time(s)": 130
    },
    {
        "Altitude(m)": 609905.3107139915,
        "Argument of Periapsis(deg)": 0.0014586524278614966,
        "Eccentricity": 0.0,
        "Inclination(deg)": 60.0,
        "Latitude(deg)": -20.86013642239864,
        "Longitude(deg)": 21.800641199780642,
        "Mean Anomaly(deg)": -24.04581396353435,
        "RAAN(deg)": 134.9941193120436,
        "Satellite Name": "Test1 614",
        "Satellite Number": 614,
        "Semi-Major Axis(m)": 6980739.136638005,
        "Time(s)": 140
    },
    {
        "Altitude(m)": 609731.4045196094,
        "Argument of Periapsis(deg)": 0.0015628418869944607,
        "Eccentricity": 0.0,
        "Inclination(deg)": 60.0,
        "Latitude(deg)": -20.333670976663967,
        "Longitude(deg)": 22.1117686646057,
        "Mean Anomaly(deg)": -23.4257078180726,
        "RAAN(deg)": 134.99369926290385,
        "Satellite Name": "Test1 614",
        "Satellite Number": 614,
        "Semi-Major Axis(m)": 6980739.136638005,
        "Time(s)": 150
    },
    {
        "Altitude(m)": 609559.3754524626,
        "Argument of Periapsis(deg)": 0.0016670313461274247,
        "Eccentricity": 0.0,
        "Inclination(deg)": 60.0,
        "Latitude(deg)": -19.806450561154094,
        "Longitude(deg)": 22.420529520461134,
        "Mean Anomaly(deg)": -22.805601672610667,
        "RAAN(deg)": 134.9932792137641,
        "Satellite Name": "Test1 614",
        "Satellite Number": 614,
        "Semi-Major Axis(m)": 6980739.136638005,
        "Time(s)": 160
    },
    {
        "Altitude(m)": 609389.2819488095,
        "Argument of Periapsis(deg)": 0.0017712208052603888,
        "Eccentricity": 0.0,
        "Inclination(deg)": 60.0,
        "Latitude(deg)": -19.278500183829593,
        "Longitude(deg)": 22.727002569837598,
        "Mean Anomaly(deg)": -22.185495527148916,
        "RAAN(deg)": 134.99285916462438,
        "Satellite Name": "Test1 614",
        "Satellite Number": 614,
        "Semi-Major Axis(m)": 6980739.136638005,
        "Time(s)": 170
    },
    {
        "Altitude(m)": 609221.1814424637,
        "Argument of Periapsis(deg)": 0.001875410264393353,
        "Eccentricity": 0.0,
        "Inclination(deg)": 60.0,
        "Latitude(deg)": -18.749844369613427,
        "Longitude(deg)": 23.03126520489689,
        "Mean Anomaly(deg)": -21.565389381687087,
        "RAAN(deg)": 134.99243911548464,
        "Satellite Name": "Test1 614",
        "Satellite Number": 614,
        "Semi-Major Axis(m)": 6980739.136638005,
        "Time(s)": 180
    },
    {
        "Altitude(m)": 609055.1303396036,
        "Argument of Periapsis(deg)": 0.0019795997235263173,
        "Eccentricity": 0.0,
        "Inclination(deg)": 60.0,
        "Latitude(deg)": -18.220507180533637,
        "Longitude(deg)": 23.33339396238275,
        "Mean Anomaly(deg)": -20.945283236225237,
        "RAAN(deg)": 134.99201906634488,
        "Satellite Name": "Test1 614",
        "Satellite Number": 614,
        "Semi-Major Axis(m)": 6980739.136638005,
        "Time(s)": 190
    }
]